H1 CPF  1  HTS 2022  4 12 12  6021 larets           NONE
H2  0304206 5557    27944 2022 04 12  0  0  0 2022 04 17  0  0  0   180 1 1  0 0 0
H5  0.0560 
H9 
10 0 59684  82440.00000  0    1305671.377     -50004.944    6923373.657
10 0 59684  82620.00000  0     384164.558   -1056996.233    6954317.977
10 0 59684  82800.00000  0    -576953.348   -2000722.514    6729787.757
10 0 59684  82980.00000  0   -1540502.998   -2846180.853    6257925.363
10 0 59684  83160.00000  0   -2468322.323   -3562908.099    5555954.167
10 0 59684  83340.00000  0   -3322790.440   -4126108.619    4649585.524
10 0 59684  83520.00000  0   -4068387.419   -4517553.196    3572103.960
10 0 59684  83700.00000  0   -4673206.369   -4726201.570    2363147.264
10 0 59684  83880.00000  0   -5110348.239   -4748523.164    1067230.194
10 0 59684  84060.00000  0   -5359133.766   -4588495.026    -267939.489
10 0 59684  84240.00000  0   -5406064.382   -4257272.972   -1593279.942
10 0 59684  84420.00000  0   -5245478.148   -3772553.204   -2860207.346
10 0 59684  84600.00000  0   -4879863.534   -3157659.953   -4022465.725
10 0 59684  84780.00000  0   -4319828.053   -2440421.169   -5037827.972
10 0 59684  84960.00000  0   -3583735.444   -1651896.564   -5869604.948
10 0 59684  85140.00000  0   -2697039.166    -825024.179   -6487911.493
10 0 59684  85320.00000  0   -1691352.385       6750.571   -6870658.203
10 0 59684  85500.00000  0    -603297.977     810803.751   -7004252.545
10 0 59684  85680.00000  0     526811.030    1556574.215   -6884012.859
10 0 59684  85860.00000  0    1656424.787    2216686.060   -6514304.850
10 0 59684  86040.00000  0    2742314.284    2767926.103   -5908399.268
10 0 59684  86220.00000  0    3742187.385    3192048.390   -5088041.374
10 0 59685      0.00000  0    4616312.924    3476381.372   -4082742.948
10 0 59685    180.00000  0    5329106.530    3614219.380   -2928798.888
10 0 59685    360.00000  0    5850608.302    3604975.870   -1668038.745
10 0 59685    540.00000  0    6157784.633    3454088.013    -346345.867
10 0 59685    720.00000  0    6235584.941    3172665.680     988009.655
10 0 59685    900.00000  0    6077691.861    2776896.152    2286158.983
10 0 59685   1080.00000  0    5686915.922    2287233.882    3500467.310
10 0 59685   1260.00000  0    5075208.665    1727412.840    4586331.071
10 0 59685   1440.00000  0    4263288.247    1123332.222    5503851.528
10 0 59685   1620.00000  0    3279906.407     501875.732    6219317.040
10 0 59685   1800.00000  0    2160784.551    -110277.726    6706439.069
10 0 59685   1980.00000  0     947281.038    -687793.263    6947299.299
10 0 59685   2160.00000  0    -315162.274   -1207728.507    6932997.619
10 0 59685   2340.00000  0   -1578741.356   -1650451.292    6663974.069
10 0 59685   2520.00000  0   -2795112.290   -2000390.958    6150000.041
10 0 59685   2700.00000  0   -3917254.802   -2246595.989    5409850.104
10 0 59685   2880.00000  0   -4901329.536   -2383087.581    4470652.374
10 0 59685   3060.00000  0   -5708445.543   -2408989.270    3366911.402
10 0 59685   3240.00000  0   -6306255.632   -2328421.768    2139241.511
10 0 59685   3420.00000  0   -6670312.956   -2150173.115     832852.665
10 0 59685   3600.00000  0   -6785114.155   -1887155.905    -504166.295
10 0 59685   3780.00000  0   -6644764.247   -1555675.685   -1822684.313
10 0 59685   3960.00000  0   -6253229.246   -1174554.439   -3074397.679
10 0 59685   4140.00000  0   -5624170.047    -764160.839   -4213640.845
10 0 59685   4320.00000  0   -4780379.718    -345398.137   -5199060.778
10 0 59685   4500.00000  0   -3752863.432      61297.472   -5995087.801
10 0 59685   4680.00000  0   -2579617.216     436896.610   -6573153.275
10 0 59685   4860.00000  0   -1304175.438     764613.611   -6912626.515
10 0 59685   5040.00000  0      26010.527    1030609.956   -7001466.728
10 0 59685   5220.00000  0    1361304.455    1224545.446   -6836587.724
10 0 59685   5400.00000  0    2651684.424    1339962.129   -6423948.606
10 0 59685   5580.00000  0    3848568.837    1374493.207   -5778357.611
10 0 59685   5760.00000  0    4906608.913    1329888.800   -4922990.682
10 0 59685   5940.00000  0    5785400.571    1211859.308   -3888635.327
10 0 59685   6120.00000  0    6451057.228    1029740.051   -2712658.112
10 0 59685   6300.00000  0    6877575.462     795986.270   -1437716.339
10 0 59685   6480.00000  0    7047928.185     525517.649    -110240.640
10 0 59685   6660.00000  0    6954814.479     234939.853    1221260.008
10 0 59685   6840.00000  0    6601023.227     -58318.427    2507999.560
10 0 59685   7020.00000  0    5999380.185    -336911.613    3702750.249
10 0 59685   7200.00000  0    5172271.785    -584476.673    4761621.659
10 0 59685   7380.00000  0    4150777.961    -786477.256    5645704.828
10 0 59685   7560.00000  0    2973453.240    -930951.084    6322515.280
10 0 59685   7740.00000  0    1684822.600   -1009121.660    6767179.288
10 0 59685   7920.00000  0     333660.139   -1015851.225    6963334.482
10 0 59685   8100.00000  0   -1028886.150    -949914.364    6903717.491
10 0 59685   8280.00000  0   -2351247.113    -814081.129    6590425.282
10 0 59685   8460.00000  0   -3583396.963    -615005.220    6034853.043
10 0 59685   8640.00000  0   -4678772.245    -362920.651    5257310.454
10 0 59685   8820.00000  0   -5596081.965     -71158.785    4286310.651
10 0 59685   9000.00000  0   -6300928.401     244496.913    3157540.568
10 0 59685   9180.00000  0   -6767164.595     566591.810    1912546.904
10 0 59685   9360.00000  0   -6977927.329     876880.712     597179.641
10 0 59685   9540.00000  0   -6926286.132    1157261.220    -740150.989
10 0 59685   9720.00000  0   -6615466.134    1390710.715   -2050324.028
10 0 59685   9900.00000  0   -6058638.576    1562175.572   -3285370.377
10 0 59685  10080.00000  0   -5278298.319    1659368.453   -4400269.979
10 0 59685  10260.00000  0   -4305262.374    1673427.819   -5354595.940
10 0 59685  10440.00000  0   -3177364.505    1599412.670   -6113938.616
10 0 59685  10620.00000  0   -1937922.795    1436614.448   -6651073.317
10 0 59685  10800.00000  0    -634048.922    1188678.429   -6946850.558
10 0 59685  10980.00000  0     685130.215     863534.586   -6990794.277
10 0 59685  11160.00000  0    1970276.538     473144.364   -6781420.664
10 0 59685  11340.00000  0    3173634.776      33068.997   -6326277.353
10 0 59685  11520.00000  0    4250762.257    -438128.389   -5641694.010
10 0 59685  11700.00000  0    5162144.489    -919630.228   -4752253.078
10 0 59685  11880.00000  0    5874655.564   -1389240.474   -3689985.999
10 0 59685  12060.00000  0    6362807.605   -1824359.706   -2493293.981
10 0 59685  12240.00000  0    6609730.638   -2203020.999   -1205614.976
10 0 59685  12420.00000  0    6607829.888   -2504939.297     126128.165
10 0 59685  12600.00000  0    6359078.568   -2712521.282    1453244.417
10 0 59685  12780.00000  0    5874919.730   -2811781.778    2727089.987
10 0 59685  12960.00000  0    5175770.195   -2793116.104    3900900.060
10 0 59685  13140.00000  0    4290150.229   -2651882.895    4931548.853
10 0 59685  13320.00000  0    3253491.660   -2388769.785    5781161.828
10 0 59685  13500.00000  0    2106677.542   -2009924.414    6418519.872
10 0 59685  13680.00000  0     894388.710   -1526841.992    6820197.230
10 0 59685  13860.00000  0    -336667.996    -956018.522    6971405.957
10 0 59685  14040.00000  0   -1539579.141    -318380.579    6866525.037
10 0 59685  14220.00000  0   -2669024.537     361487.525    6509307.477
10 0 59685  14400.00000  0   -3683000.992    1056295.385    5912762.909
10 0 59685  14580.00000  0   -4544415.214    1737144.802    5098713.630
10 0 59685  14760.00000  0   -5222489.680    2374736.546    4097025.739
10 0 59685  14940.00000  0   -5693919.132    2940639.380    2944526.955
10 0 59685  15120.00000  0   -5943722.539    3408562.055    1683645.806
10 0 59685  15300.00000  0   -5965752.899    3755569.173     360817.773
10 0 59685  15480.00000  0   -5762828.720    3963174.275    -975283.198
10 0 59685  15660.00000  0   -5346480.838    4018249.430   -2275601.420
10 0 59685  15840.00000  0   -4736328.627    3913704.978   -3492562.876
10 0 59685  16020.00000  0   -3959120.517    3648901.410   -4581849.978
10 0 59685  16200.00000  0   -3047506.710    3229781.960   -5504006.421
10 0 59685  16380.00000  0   -2038620.941    2668731.920   -6225815.905
10 0 59685  16560.00000  0    -972543.014    1984181.187   -6721424.489
10 0 59685  16740.00000  0     109293.873    1199970.304   -6973179.388
10 0 59685  16920.00000  0    1165683.579     344513.311   -6972180.006
10 0 59685  17100.00000  0    2157173.234    -550215.449   -6718548.172
10 0 59685  17280.00000  0    3047493.813   -1449845.464   -6221410.722
10 0 59685  17460.00000  0    3804854.095   -2318889.689   -5498601.387
10 0 59685  17640.00000  0    4403068.641   -3122109.117   -4576086.810
10 0 59685  17820.00000  0    4822481.792   -3825924.774   -3487109.467
10 0 59685  18000.00000  0    5050648.256   -4399817.221   -2271062.434
10 0 59685  18180.00000  0    5082743.784   -4817658.458    -972116.846
10 0 59685  18360.00000  0    4921673.735   -5058912.152     362363.464
10 0 59685  18540.00000  0    4577861.154   -5109635.155    1683563.971
10 0 59685  18720.00000  0    4068718.422   -4963218.323    2943044.628
10 0 59685  18900.00000  0    3417825.063   -4620824.829    4094562.224
10 0 59685  19080.00000  0    2653854.692   -4091501.649    5095810.017
10 0 59685  19260.00000  0    1809306.669   -3391955.434    5909997.910
10 0 59685  19440.00000  0     919107.388   -2546007.008    6507211.302
10 0 59685  19620.00000  0      19146.851   -1583751.317    6865498.482
10 0 59685  19800.00000  0    -855181.318    -540463.632    6971658.510
10 0 59685  19980.00000  0   -1670379.695     544710.415    6821717.532
10 0 59685  20160.00000  0   -2396140.916    1630235.822    6421080.148
10 0 59685  20340.00000  0   -3006490.675    2673789.437    5784351.819
99
